[{"OBJECT_NAME":"YAOGAN-30 09A","OBJECT_ID":"2021-039A","EPOCH":"2026-03-09T22:49:24.864672","MEAN_MOTION":15.02125939,"ECCENTRICITY":0.0004998,"INCLINATION":34.9966,"RA_OF_ASC_NODE":276.1989,"ARG_OF_PERICENTER":265.144,"MEAN_ANOMALY":94.8698,"EPHEMERIS_TYPE":0,"CLASSIFICATION_TYPE":"U","NORAD_CAT_ID":48423,"ELEMENT_SET_NO":999,"REV_AT_EPOCH":26461,"BSTAR":0.00029068534,"MEAN_MOTION_DOT":3.873e-5,"MEAN_MOTION_DDOT":0},{"OBJECT_NAME":"STARLINK-35186","OBJECT_ID":"2025-207V","EPOCH":"2026-03-09T17:36:36.958176","MEAN_MOTION":15.05644925,"ECCENTRICITY":3.438e-5,"INCLINATION":97.6037,"RA_OF_ASC_NODE":138.6399,"ARG_OF_PERICENTER":92.9692,"MEAN_ANOMALY":267.1574,"EPHEMERIS_TYPE":0,"CLASSIFICATION_TYPE":"U","NORAD_CAT_ID":65611,"ELEMENT_SET_NO":999,"REV_AT_EPOCH":2826,"BSTAR":0.00015310109,"MEAN_MOTION_DOT":2.149e-5,"MEAN_MOTION_DDOT":0}]
